{
  "type": "FeatureCollection",
  "features": [
    {
      "type": "Feature",
      "properties": {
        "norad_id": 58647,
        "name": "TIANMU-1 13",
        "group": "weather",
        "lat": 37.934191793212335,
        "lon": 10.461983152756726,
        "alt_km": 493.54368749984405,
        "timestamp": "2025-12-22T18:58:53.063625+00:00",
        "meta_object_name": "TIANMU-1 13",
        "meta_object_id": "2023-205C",
        "meta_epoch": "2025-12-22T07:47:15.619776",
        "meta_mean_motion": 15.24637437,
        "meta_eccentricity": 0.00064231,
        "meta_inclination": 97.3608,
        "meta_ra_of_asc_node": 15.7866,
        "meta_arg_of_pericenter": 224.8657,
        "meta_mean_anomaly": 135.2063,
        "meta_ephemeris_type": 0,
        "meta_classification_type": "U",
        "meta_norad_cat_id": 58647,
        "meta_element_set_no": 999,
        "meta_rev_at_epoch": 11053,
        "meta_bstar": 0.00027076873,
        "meta_mean_motion_dot": 6.617e-05,
        "meta_mean_motion_ddot": 0,
        "tle_line1": "1 58647U 23205C   25356.32448634  .00006617  00000+0  27077-3 0  9992",
        "tle_line2": "2 58647  97.3608  15.7866 0006423 224.8657 135.2063 15.24637437110539"
      },
      "geometry": {
        "type": "Point",
        "coordinates": [
          10.461983152756726,
          37.934191793212335
        ]
      }
    },
    {
      "type": "Feature",
      "properties": {
        "norad_id": 58648,
        "name": "TIANMU-1 14",
        "group": "weather",
        "lat": 50.596011984983285,
        "lon": -155.37056914848665,
        "alt_km": 488.2152953940131,
        "timestamp": "2025-12-22T18:58:53.063642+00:00",
        "meta_object_name": "TIANMU-1 14",
        "meta_object_id": "2023-205D",
        "meta_epoch": "2025-12-22T07:23:30.405984",
        "meta_mean_motion": 15.2462031,
        "meta_eccentricity": 0.00071322,
        "meta_inclination": 97.3541,
        "meta_ra_of_asc_node": 15.1103,
        "meta_arg_of_pericenter": 231.0812,
        "meta_mean_anomaly": 128.979,
        "meta_ephemeris_type": 0,
        "meta_classification_type": "U",
        "meta_norad_cat_id": 58648,
        "meta_element_set_no": 999,
        "meta_rev_at_epoch": 11053,
        "meta_bstar": 0.00026007577,
        "meta_mean_motion_dot": 6.35e-05,
        "meta_mean_motion_ddot": 0,
        "tle_line1": "1 58648U 23205D   25356.30799081  .00006350  00000+0  26008-3 0  9993",
        "tle_line2": "2 58648  97.3541  15.1103 0007132 231.0812 128.9790 15.24620310110533"
      },
      "geometry": {
        "type": "Point",
        "coordinates": [
          -155.37056914848665,
          50.596011984983285
        ]
      }
    },
    {
      "type": "Feature",
      "properties": {
        "norad_id": 58660,
        "name": "TIANMU-1 19",
        "group": "weather",
        "lat": 34.06791687687955,
        "lon": -67.12131015371251,
        "alt_km": 478.24441060351364,
        "timestamp": "2025-12-22T18:58:53.063661+00:00",
        "meta_object_name": "TIANMU-1 19",
        "meta_object_id": "2023-208A",
        "meta_epoch": "2025-12-22T07:20:40.833888",
        "meta_mean_motion": 15.28014047,
        "meta_eccentricity": 0.00046067,
        "meta_inclination": 97.4394,
        "meta_ra_of_asc_node": 107.3253,
        "meta_arg_of_pericenter": 211.3383,
        "meta_mean_anomaly": 148.7582,
        "meta_ephemeris_type": 0,
        "meta_classification_type": "U",
        "meta_norad_cat_id": 58660,
        "meta_element_set_no": 999,
        "meta_rev_at_epoch": 11028,
        "meta_bstar": 0.00036839282,
        "meta_mean_motion_dot": 9.999e-05,
        "meta_mean_motion_ddot": 0,
        "tle_line1": "1 58660U 23208A   25356.30602817  .00009999  00000+0  36839-3 0  9995",
        "tle_line2": "2 58660  97.4394 107.3253 0004606 211.3383 148.7582 15.28014047110280"
      },
      "geometry": {
        "type": "Point",
        "coordinates": [
          -67.12131015371251,
          34.06791687687955
        ]
      }
    },
    {
      "type": "Feature",
      "properties": {
        "norad_id": 58661,
        "name": "TIANMU-1 20",
        "group": "weather",
        "lat": -79.70085412239693,
        "lon": -117.66220669257314,
        "alt_km": 481.95459814966034,
        "timestamp": "2025-12-22T18:58:53.063678+00:00",
        "meta_object_name": "TIANMU-1 20",
        "meta_object_id": "2023-208B",
        "meta_epoch": "2025-12-22T06:50:31.789824",
        "meta_mean_motion": 15.2920339,
        "meta_eccentricity": 0.00066553,
        "meta_inclination": 97.4332,
        "meta_ra_of_asc_node": 107.7613,
        "meta_arg_of_pericenter": 226.0413,
        "meta_mean_anomaly": 134.0279,
        "meta_ephemeris_type": 0,
        "meta_classification_type": "U",
        "meta_norad_cat_id": 58661,
        "meta_element_set_no": 999,
        "meta_rev_at_epoch": 11035,
        "meta_bstar": 0.00035235486,
        "meta_mean_motion_dot": 9.918e-05,
        "meta_mean_motion_ddot": 0,
        "tle_line1": "1 58661U 23208B   25356.28509016  .00009918  00000+0  35235-3 0  9990",
        "tle_line2": "2 58661  97.4332 107.7613 0006655 226.0413 134.0279 15.29203390110351"
      },
      "geometry": {
        "type": "Point",
        "coordinates": [
          -117.66220669257314,
          -79.70085412239693
        ]
      }
    },
    {
      "type": "Feature",
      "properties": {
        "norad_id": 58662,
        "name": "TIANMU-1 21",
        "group": "weather",
        "lat": -1.286713368474054,
        "lon": 110.38865319056484,
        "alt_km": 477.16228096519535,
        "timestamp": "2025-12-22T18:58:53.063698+00:00",
        "meta_object_name": "TIANMU-1 21",
        "meta_object_id": "2023-208C",
        "meta_epoch": "2025-12-22T06:26:39.397920",
        "meta_mean_motion": 15.31742811,
        "meta_eccentricity": 0.00063019,
        "meta_inclination": 97.4382,
        "meta_ra_of_asc_node": 109.6962,
        "meta_arg_of_pericenter": 220.439,
        "meta_mean_anomaly": 139.6384,
        "meta_ephemeris_type": 0,
        "meta_classification_type": "U",
        "meta_norad_cat_id": 58662,
        "meta_element_set_no": 999,
        "meta_rev_at_epoch": 11045,
        "meta_bstar": 0.00041055657,
        "meta_mean_motion_dot": 0.00012519,
        "meta_mean_motion_ddot": 0,
        "tle_line1": "1 58662U 23208C   25356.26851155  .00012519  00000+0  41056-3 0  9992",
        "tle_line2": "2 58662  97.4382 109.6962 0006301 220.4390 139.6384 15.31742811110453"
      },
      "geometry": {
        "type": "Point",
        "coordinates": [
          110.38865319056484,
          -1.286713368474054
        ]
      }
    },
    {
      "type": "Feature",
      "properties": {
        "norad_id": 58663,
        "name": "TIANMU-1 22",
        "group": "weather",
        "lat": 41.85500543890435,
        "lon": -65.41457180820403,
        "alt_km": 479.42492138529724,
        "timestamp": "2025-12-22T18:58:53.063714+00:00",
        "meta_object_name": "TIANMU-1 22",
        "meta_object_id": "2023-208D",
        "meta_epoch": "2025-12-22T07:22:37.945632",
        "meta_mean_motion": 15.27756684,
        "meta_eccentricity": 0.0002837,
        "meta_inclination": 97.4388,
        "meta_ra_of_asc_node": 107.3813,
        "meta_arg_of_pericenter": 236.7083,
        "meta_mean_anomaly": 123.3885,
        "meta_ephemeris_type": 0,
        "meta_classification_type": "U",
        "meta_norad_cat_id": 58663,
        "meta_element_set_no": 999,
        "meta_rev_at_epoch": 11029,
        "meta_bstar": 0.00034538415,
        "meta_mean_motion_dot": 9.294e-05,
        "meta_mean_motion_ddot": 0,
        "tle_line1": "1 58663U 23208D   25356.30738363  .00009294  00000+0  34538-3 0  9996",
        "tle_line2": "2 58663  97.4388 107.3813 0002837 236.7083 123.3885 15.27756684110295"
      },
      "geometry": {
        "type": "Point",
        "coordinates": [
          -65.41457180820403,
          41.85500543890435
        ]
      }
    },
    {
      "type": "Feature",
      "properties": {
        "norad_id": 58700,
        "name": "TIANMU-1 15",
        "group": "weather",
        "lat": 28.494808030524577,
        "lon": 2.3025428023403216,
        "alt_km": 491.45883975730885,
        "timestamp": "2025-12-22T18:58:53.063731+00:00",
        "meta_object_name": "TIANMU-1 15",
        "meta_object_id": "2024-004A",
        "meta_epoch": "2025-12-22T07:17:35.447136",
        "meta_mean_motion": 15.24525942,
        "meta_eccentricity": 0.00059953,
        "meta_inclination": 97.4622,
        "meta_ra_of_asc_node": 177.7374,
        "meta_arg_of_pericenter": 249.4702,
        "meta_mean_anomaly": 110.5892,
        "meta_ephemeris_type": 0,
        "meta_classification_type": "U",
        "meta_norad_cat_id": 58700,
        "meta_element_set_no": 999,
        "meta_rev_at_epoch": 10880,
        "meta_bstar": 0.00029460563,
        "meta_mean_motion_dot": 7.18e-05,
        "meta_mean_motion_ddot": 0,
        "tle_line1": "1 58700U 24004A   25356.30388249  .00007180  00000+0  29461-3 0  9998",
        "tle_line2": "2 58700  97.4622 177.7374 0005995 249.4702 110.5892 15.24525942108806"
      },
      "geometry": {
        "type": "Point",
        "coordinates": [
          2.3025428023403216,
          28.494808030524577
        ]
      }
    }
  ]
}